[
    {
        "CCSDS_OMM_VERS": "3.0",
        "COMMENT": "GENERATED VIA SPACE-TRACK.ORG API",
        "CREATION_DATE": "2025-03-02T18:08:23",
        "ORIGINATOR": "18 SPCS",
        "OBJECT_NAME": "QZS-3",
        "OBJECT_ID": "2017-048A",
        "CENTER_NAME": "EARTH",
        "REF_FRAME": "TEME",
        "TIME_SYSTEM": "UTC",
        "MEAN_ELEMENT_THEORY": "SGP4",
        "EPOCH": "2025-03-02T13:46:51.902976",
        "MEAN_MOTION": "1.00274243",
        "ECCENTRICITY": "0.00024200",
        "INCLINATION": "0.0536",
        "RA_OF_ASC_NODE": "172.1227",
        "ARG_OF_PERICENTER": "173.4567",
        "MEAN_ANOMALY": "148.7232",
        "EPHEMERIS_TYPE": "0",
        "CLASSIFICATION_TYPE": "U",
        "NORAD_CAT_ID": "42917",
        "ELEMENT_SET_NO": "999",
        "REV_AT_EPOCH": "2753",
        "BSTAR": "0.00000000000000",
        "MEAN_MOTION_DOT": "-0.00000351",
        "MEAN_MOTION_DDOT": "0.0000000000000",
        "SEMIMAJOR_AXIS": "42164.043",
        "PERIOD": "1436.062",
        "APOAPSIS": "35796.112",
        "PERIAPSIS": "35775.704",
        "OBJECT_TYPE": "PAYLOAD",
        "RCS_SIZE": "LARGE",
        "COUNTRY_CODE": "JPN",
        "LAUNCH_DATE": "2017-08-19",
        "SITE": "TNSTA",
        "DECAY_DATE": null,
        "FILE": "4657142",
        "GP_ID": "282086979",
        "TLE_LINE0": "0 QZS-3",
        "TLE_LINE1": "1 42917U 17048A   25061.57421184 -.00000351  00000-0  00000-0 0  9999",
        "TLE_LINE2": "2 42917   0.0536 172.1227 0002420 173.4567 148.7232  1.00274243 27539"
    }
]